KUIPER-00112            
1 65150U 25171U   25329.83335647 -.00082556  00000+0 -71108-2 0  9999
2 65150  51.8974 255.6716 0009496 167.3465  30.9762 14.97223584  3785
KUIPER-00114            
1 65151U 25171V   25329.59493381 -.00000855  00000+0 -82926-4 0  9997
2 65151  51.8997 275.9131 0006661 118.4930 241.6704 14.79937839 17228
KUIPER-00115            
1 65152U 25171W   25329.13031905  .00006248  00000+0  84697-3 0  9994
2 65152  51.9009 270.4458 0010665 140.9479 219.2255 14.79953191 17268
KUIPER-00116            
1 65153U 25171X   25329.56391260 -.00000475  00000+0 -32873-4 0  9993
2 65153  51.8994 273.5767 0010682 108.3012 251.9113 14.79941350 17257
KUIPER-00118            
1 65154U 25171Y   25329.56112948 -.00001435  00000+0 -15910-3 0  9997
2 65154  51.9005 276.0369 0001879 110.5926 249.5238 14.79946935 17227
KUIPER-00119            
1 65155U 25171Z   25329.23713423  .00004854  00000+0  66473-3 0  9993
2 65155  51.8998 265.0586 0009223 131.8430 228.3321 14.79955868 17340
KUIPER-00120            
1 65762U 25217A   25329.83335647  .00004546  00000+0  46312-3 0  9990
2 65762  51.8925 152.6271 0016100 308.6379  38.6929 14.92339127  1308
KUIPER-00132            
1 65763U 25217B   25329.79952479  .00044618  00000+0  12176-2 0  9998
2 65763  51.8624 146.6592 0005490 316.9347  43.1209 15.36977282  9434
